start=new Date('2022-03-21T00:00:00.000Z').valueOf();
sats=[{"REV_AT_EPOCH":"2084","REF_FRAME":"TEME","MEAN_ELEMENT_THEORY":"SGP4","RA_OF_ASC_NODE":"257.4145","COUNTRY_CODE":"US","SEMIMAJOR_AXIS":"6917.874","PERIOD":"95.437","RCS_SIZE":"LARGE","EPOCH":"2022-03-20T22:00:01.999584","MEAN_MOTION_DOT":"0.00042421","TIME_SYSTEM":"UTC","SITE":"AFETR","GP_ID":"199241401","LAUNCH_DATE":"2021-11-13","DECAY_DATE":null,"OBJECT_NAME":"STARLINK-3147","INCLINATION":"53.2161","MEAN_ANOMALY":"279.9024","TLE_LINE2":"2 49410  53.2161 257.4145 0002254  46.7566 279.9024 15.08842226 20848","ECCENTRICITY":"0.00022540","FILE":"3367290","ELEMENT_SET_NO":"999","EPHEMERIS_TYPE":"0","OBJECT_ID":"2021-104C","CENTER_NAME":"EARTH","OBJECT_TYPE":"PAYLOAD","BSTAR":"0.00266730000000","MEAN_MOTION_DDOT":"0.0000000000000","MEAN_MOTION":"15.08842226","NORAD_CAT_ID":"49410","ARG_OF_PERICENTER":"46.7566","APOAPSIS":"541.298","TLE_LINE1":"1 49410U 21104C   22079.91668981  .00042421  00000-0  26673-2 0  9993","PERIAPSIS":"538.179","CLASSIFICATION_TYPE":"U"},{"PERIOD":"95.438","EPOCH":"2022-03-20T22:00:01.999584","MEAN_MOTION_DOT":"0.00047121","RCS_SIZE":"LARGE","GP_ID":"199268904","TIME_SYSTEM":"UTC","SITE":"AFETR","LAUNCH_DATE":"2021-11-13","MEAN_ELEMENT_THEORY":"SGP4","RA_OF_ASC_NODE":"247.4091","REF_FRAME":"TEME","REV_AT_EPOCH":"361","COUNTRY_CODE":"US","SEMIMAJOR_AXIS":"6917.916","BSTAR":"0.00296000000000","OBJECT_TYPE":"PAYLOAD","NORAD_CAT_ID":"49411","MEAN_MOTION":"15.08828368","MEAN_MOTION_DDOT":"0.0000000000000","TLE_LINE1":"1 49411U 21104D   22079.91668981  .00047121  00000-0  29600-2 0  9999","PERIAPSIS":"538.478","APOAPSIS":"541.084","ARG_OF_PERICENTER":"50.4357","CLASSIFICATION_TYPE":"U","MEAN_ANOMALY":"311.3247","INCLINATION":"53.2148","OBJECT_NAME":"STARLINK-3162","DECAY_DATE":null,"FILE":"3367488","ECCENTRICITY":"0.00018830","TLE_LINE2":"2 49411  53.2148 247.4091 0001883  50.4357 311.3247 15.08828368  3615","EPHEMERIS_TYPE":"0","OBJECT_ID":"2021-104D","ELEMENT_SET_NO":"999","CENTER_NAME":"EARTH"},{"ECCENTRICITY":"0.00020660","FILE":"3367488","TLE_LINE2":"2 49412  53.2190 257.4059 0002066  45.0937 261.6384 15.08826886  3607","INCLINATION":"53.2190","MEAN_ANOMALY":"261.6384","OBJECT_NAME":"STARLINK-3144","DECAY_DATE":null,"CENTER_NAME":"EARTH","EPHEMERIS_TYPE":"0","OBJECT_ID":"2021-104E","ELEMENT_SET_NO":"999","NORAD_CAT_ID":"49412","MEAN_MOTION":"15.08826886","MEAN_MOTION_DDOT":"0.0000000000000","BSTAR":"0.00273670000000","OBJECT_TYPE":"PAYLOAD","CLASSIFICATION_TYPE":"U","TLE_LINE1":"1 49412U 21104E   22079.91668981  .00043521  00000-0  27367-2 0  9998","PERIAPSIS":"538.356","APOAPSIS":"541.215","ARG_OF_PERICENTER":"45.0937","COUNTRY_CODE":"US","MEAN_ELEMENT_THEORY":"SGP4","RA_OF_ASC_NODE":"257.4059","REF_FRAME":"TEME","REV_AT_EPOCH":"360","SEMIMAJOR_AXIS":"6917.920","EPOCH":"2022-03-20T22:00:01.999584","MEAN_MOTION_DOT":"0.00043521","RCS_SIZE":"LARGE","PERIOD":"95.438","LAUNCH_DATE":"2021-11-13","GP_ID":"199269154","TIME_SYSTEM":"UTC","SITE":"AFETR"},{"MEAN_ANOMALY":"333.5466","INCLINATION":"53.2162","DECAY_DATE":null,"OBJECT_NAME":"STARLINK-3157","FILE":"3367488","ECCENTRICITY":"0.00019250","TLE_LINE2":"2 49413  53.2162 247.4125 0001925  48.1906 333.5466 15.08819077  3618","OBJECT_ID":"2021-104F","EPHEMERIS_TYPE":"0","ELEMENT_SET_NO":"999","CENTER_NAME":"EARTH","BSTAR":"0.00294510000000","OBJECT_TYPE":"PAYLOAD","NORAD_CAT_ID":"49413","MEAN_MOTION":"15.08819077","MEAN_MOTION_DDOT":"0.0000000000000","APOAPSIS":"541.141","PERIAPSIS":"538.478","TLE_LINE1":"1 49413U 21104F   22079.91668981  .00046869  00000-0  29451-2 0  9993","ARG_OF_PERICENTER":"48.1906","CLASSIFICATION_TYPE":"U","REF_FRAME":"TEME","RA_OF_ASC_NODE":"247.4125","MEAN_ELEMENT_THEORY":"SGP4","REV_AT_EPOCH":"361","COUNTRY_CODE":"US","SEMIMAJOR_AXIS":"6917.944","PERIOD":"95.439","EPOCH":"2022-03-20T22:00:01.999584","MEAN_MOTION_DOT":"0.00046869","RCS_SIZE":"LARGE","GP_ID":"199269906","TIME_SYSTEM":"UTC","SITE":"AFETR","LAUNCH_DATE":"2021-11-13"},{"PERIOD":"95.438","EPOCH":"2022-03-20T22:00:01.999584","MEAN_MOTION_DOT":"0.00043469","RCS_SIZE":"LARGE","GP_ID":"199269657","SITE":"AFETR","TIME_SYSTEM":"UTC","LAUNCH_DATE":"2021-11-13","MEAN_ELEMENT_THEORY":"SGP4","RA_OF_ASC_NODE":"257.4123","REF_FRAME":"TEME","REV_AT_EPOCH":"360","COUNTRY_CODE":"US","SEMIMAJOR_AXIS":"6917.920","BSTAR":"0.00273350000000","OBJECT_TYPE":"PAYLOAD","MEAN_MOTION":"15.08826952","NORAD_CAT_ID":"49414","MEAN_MOTION_DDOT":"0.0000000000000","PERIAPSIS":"538.318","TLE_LINE1":"1 49414U 21104G   22079.91668981  .00043469  00000-0  27335-2 0  9996","APOAPSIS":"541.253","ARG_OF_PERICENTER":"47.7078","CLASSIFICATION_TYPE":"U","MEAN_ANOMALY":"299.0564","INCLINATION":"53.2151","OBJECT_NAME":"STARLINK-3146","DECAY_DATE":null,"FILE":"3367488","ECCENTRICITY":"0.00021210","TLE_LINE2":"2 49414  53.2151 257.4123 0002121  47.7078 299.0564 15.08826952  3604","EPHEMERIS_TYPE":"0","OBJECT_ID":"2021-104G","ELEMENT_SET_NO":"999","CENTER_NAME":"EARTH"},{"SEMIMAJOR_AXIS":"6917.938","RA_OF_ASC_NODE":"247.4123","MEAN_ELEMENT_THEORY":"SGP4","REF_FRAME":"TEME","REV_AT_EPOCH":"360","COUNTRY_CODE":"US","GP_ID":"199268405","SITE":"AFETR","TIME_SYSTEM":"UTC","LAUNCH_DATE":"2021-11-13","PERIOD":"95.439","MEAN_MOTION_DOT":"0.00046609","EPOCH":"2022-03-20T22:00:01.999584","RCS_SIZE":"LARGE","EPHEMERIS_TYPE":"0","OBJECT_ID":"2021-104H","ELEMENT_SET_NO":"999","CENTER_NAME":"EARTH","MEAN_ANOMALY":"2.0578","INCLINATION":"53.2164","OBJECT_NAME":"STARLINK-3159","DECAY_DATE":null,"ECCENTRICITY":"0.00021310","FILE":"3367488","TLE_LINE2":"2 49415  53.2164 247.4123 0002131  39.6915   2.0578 15.08821308  3606","PERIAPSIS":"538.328","TLE_LINE1":"1 49415U 21104H   22079.91668981  .00046609  00000-0  29288-2 0  9995","APOAPSIS":"541.277","ARG_OF_PERICENTER":"39.6915","CLASSIFICATION_TYPE":"U","BSTAR":"0.00292880000000","OBJECT_TYPE":"PAYLOAD","NORAD_CAT_ID":"49415","MEAN_MOTION":"15.08821308","MEAN_MOTION_DDOT":"0.0000000000000"},{"SEMIMAJOR_AXIS":"6917.860","COUNTRY_CODE":"US","REV_AT_EPOCH":"361","RA_OF_ASC_NODE":"257.4029","MEAN_ELEMENT_THEORY":"SGP4","REF_FRAME":"TEME","LAUNCH_DATE":"2021-11-13","SITE":"AFETR","TIME_SYSTEM":"UTC","GP_ID":"199268655","RCS_SIZE":"LARGE","MEAN_MOTION_DOT":"-0.00003697","EPOCH":"2022-03-20T22:00:01.999584","PERIOD":"95.437","CENTER_NAME":"EARTH","ELEMENT_SET_NO":"999","EPHEMERIS_TYPE":"0","OBJECT_ID":"2021-104J","TLE_LINE2":"2 49416  53.2153 257.4029 0002194  45.5852 341.1758 15.08846819  3618","ECCENTRICITY":"0.00021940","FILE":"3367488","OBJECT_NAME":"STARLINK-3133","DECAY_DATE":null,"MEAN_ANOMALY":"341.1758","INCLINATION":"53.2153","CLASSIFICATION_TYPE":"U","ARG_OF_PERICENTER":"45.5852","TLE_LINE1":"1 49416U 21104J   22079.91668981 -.00003697  00000-0 -21423-3 0  9992","PERIAPSIS":"538.207","APOAPSIS":"541.242","MEAN_MOTION_DDOT":"0.0000000000000","NORAD_CAT_ID":"49416","MEAN_MOTION":"15.08846819","OBJECT_TYPE":"PAYLOAD","BSTAR":"-0.00021423000000"},{"SEMIMAJOR_AXIS":"6917.888","MEAN_ELEMENT_THEORY":"SGP4","RA_OF_ASC_NODE":"247.7562","REF_FRAME":"TEME","REV_AT_EPOCH":"1988","COUNTRY_CODE":"US","GP_ID":"199269407","TIME_SYSTEM":"UTC","SITE":"AFETR","LAUNCH_DATE":"2021-11-13","PERIOD":"95.438","MEAN_MOTION_DOT":"0.00000219","EPOCH":"2022-03-20T20:08:19.169664","RCS_SIZE":"LARGE","EPHEMERIS_TYPE":"0","OBJECT_ID":"2021-104K","ELEMENT_SET_NO":"999","CENTER_NAME":"EARTH","INCLINATION":"53.2171","MEAN_ANOMALY":"314.1961","OBJECT_NAME":"STARLINK-3154","DECAY_DATE":null,"ECCENTRICITY":"0.00019800","FILE":"3367488","TLE_LINE2":"2 49417  53.2171 247.7562 0001980  45.9194 314.1961 15.08837600 19888","TLE_LINE1":"1 49417U 21104K   22079.83911076  .00000219  00000-0  31899-4 0  9994","PERIAPSIS":"538.383","APOAPSIS":"541.122","ARG_OF_PERICENTER":"45.9194","CLASSIFICATION_TYPE":"U","BSTAR":"0.00003189900000","OBJECT_TYPE":"PAYLOAD","MEAN_MOTION":"15.08837600","NORAD_CAT_ID":"49417","MEAN_MOTION_DDOT":"0.0000000000000"},{"DECAY_DATE":null,"OBJECT_NAME":"STARLINK-3111","MEAN_ANOMALY":"6.5108","INCLINATION":"53.2168","TLE_LINE2":"2 49418  53.2168 257.3982 0002085  40.2311   6.5108 15.08829209  3608","FILE":"3367488","ECCENTRICITY":"0.00020850","ELEMENT_SET_NO":"999","EPHEMERIS_TYPE":"0","OBJECT_ID":"2021-104L","CENTER_NAME":"EARTH","OBJECT_TYPE":"PAYLOAD","BSTAR":"0.00293620000000","MEAN_MOTION_DDOT":"0.0000000000000","NORAD_CAT_ID":"49418","MEAN_MOTION":"15.08829209","ARG_OF_PERICENTER":"40.2311","APOAPSIS":"541.221","PERIAPSIS":"538.336","TLE_LINE1":"1 49418U 21104L   22079.91668981  .00046739  00000-0  29362-2 0  9995","CLASSIFICATION_TYPE":"U","REV_AT_EPOCH":"360","REF_FRAME":"TEME","RA_OF_ASC_NODE":"257.3982","MEAN_ELEMENT_THEORY":"SGP4","COUNTRY_CODE":"US","SEMIMAJOR_AXIS":"6917.913","PERIOD":"95.438","RCS_SIZE":"LARGE","MEAN_MOTION_DOT":"0.00046739","EPOCH":"2022-03-20T22:00:01.999584","TIME_SYSTEM":"UTC","SITE":"AFETR","GP_ID":"199270157","LAUNCH_DATE":"2021-11-13"},{"REV_AT_EPOCH":"2084","REF_FRAME":"TEME","RA_OF_ASC_NODE":"257.3968","MEAN_ELEMENT_THEORY":"SGP4","COUNTRY_CODE":"US","SEMIMAJOR_AXIS":"6917.962","PERIOD":"95.439","RCS_SIZE":"LARGE","MEAN_MOTION_DOT":"0.00049624","EPOCH":"2022-03-20T22:00:01.999584","TIME_SYSTEM":"UTC","SITE":"AFETR","GP_ID":"199241626","LAUNCH_DATE":"2021-11-13","DECAY_DATE":null,"OBJECT_NAME":"STARLINK-3120","MEAN_ANOMALY":"63.2487","INCLINATION":"53.2166","TLE_LINE2":"2 49419  53.2166 257.3968 0002156  43.5238  63.2487 15.08813446 20845","FILE":"3367307","ECCENTRICITY":"0.00021560","ELEMENT_SET_NO":"999","EPHEMERIS_TYPE":"0","OBJECT_ID":"2021-104M","CENTER_NAME":"EARTH","OBJECT_TYPE":"PAYLOAD","BSTAR":"0.00311640000000","MEAN_MOTION_DDOT":"0.0000000000000","NORAD_CAT_ID":"49419","MEAN_MOTION":"15.08813446","ARG_OF_PERICENTER":"43.5238","APOAPSIS":"541.318","TLE_LINE1":"1 49419U 21104M   22079.91668981  .00049624  00000-0  31164-2 0  9995","PERIAPSIS":"538.335","CLASSIFICATION_TYPE":"U"}];
